[{"OBJECT_NAME":"ORBCOMM FM04","OBJECT_ID":"1998-007C","EPOCH":"2026-03-09T14:44:15.821664","MEAN_MOTION":14.35529153,"ECCENTRICITY":0.0038795,"INCLINATION":107.9614,"RA_OF_ASC_NODE":324.5497,"ARG_OF_PERICENTER":142.9338,"MEAN_ANOMALY":217.4493,"EPHEMERIS_TYPE":0,"CLASSIFICATION_TYPE":"U","NORAD_CAT_ID":25159,"ELEMENT_SET_NO":999,"REV_AT_EPOCH":46230,"BSTAR":0.0004125,"MEAN_MOTION_DOT":1.067e-5,"MEAN_MOTION_DDOT":0},{"OBJECT_NAME":"COSMOS 2251 DEB","OBJECT_ID":"1993-036ABD","EPOCH":"2026-03-09T06:38:23.803296","MEAN_MOTION":14.37326075,"ECCENTRICITY":0.00537173,"INCLINATION":73.896,"RA_OF_ASC_NODE":164.9086,"ARG_OF_PERICENTER":32.3146,"MEAN_ANOMALY":358.8485,"EPHEMERIS_TYPE":0,"CLASSIFICATION_TYPE":"U","NORAD_CAT_ID":34814,"ELEMENT_SET_NO":999,"REV_AT_EPOCH":88576,"BSTAR":0.00077511268,"MEAN_MOTION_DOT":2.325e-5,"MEAN_MOTION_DDOT":0}]
